GLOBALSTAR M001 [-]     
1 25162U 98008A   23333.80478649 -.00000048  00000+0  37610-3 0  9993
2 25162  52.0009 178.7588 0002599 115.7439 327.2660 12.38174145173781
GLOBALSTAR M004 [-]     
1 25163U 98008B   23334.03072010 -.00000032  00000+0  39550-3 0  9990
2 25163  52.0011 338.2423 0003231 111.8692 283.7124 12.63343569190357
GLOBALSTAR M002 [-]     
1 25164U 98008C   23334.10964139 -.00000045  00000+0  62628-3 0  9997
2 25164  51.9998 217.0270 0001268 135.6183 224.4739 11.61497714118477
GLOBALSTAR M003 [-]     
1 25165U 98008D   23333.32906421  .00000040  00000+0  13772-2 0  9990
2 25165  51.9788 295.8120 0007515 234.1102 292.4929 12.11956746164603
GLOBALSTAR M014 [-]     
1 25306U 98023A   23333.01878851 -.00000069  00000+0  15014-3 0  9999
2 25306  51.9803 154.8859 0001866  72.1238 103.2647 11.65462593125157
GLOBALSTAR M006 [-]     
1 25307U 98023B   23333.83071817 -.00000044  00000+0  64828-3 0  9997
2 25307  51.9908 184.1777 0003852 151.9997 292.6899 11.58157517151435
GLOBALSTAR M015 [-]     
1 25308U 98023C   23333.18496008 -.00000054  00000+0  44693-3 0  9998
2 25308  51.9822 258.3224 0012285 144.1334   4.3396 11.48858305129023
GLOBALSTAR M008 [-]     
1 25309U 98023D   23333.51532208 -.00000055  00000+0  32144-3 0  9998
2 25309  51.9994  38.0256 0002789  72.7969  33.2132 12.36032465167895
